{
  "type": "FeatureCollection",
  "features": [
    {
      "type": "Feature",
      "properties": {
        "norad_id": 40894,
        "name": "GAOFEN-9 01",
        "group": "resource",
        "lat": 80.4821769292327,
        "lon": -103.6086836793808,
        "alt_km": 602.1373932266097,
        "timestamp": "2025-12-09T23:33:23.506484+00:00",
        "meta_object_name": "GAOFEN-9 01",
        "meta_object_id": "2015-047A",
        "meta_epoch": "2025-12-09T15:01:44.162976",
        "meta_mean_motion": 14.82410793,
        "meta_eccentricity": 0.0028619,
        "meta_inclination": 97.6546,
        "meta_ra_of_asc_node": 22.7161,
        "meta_arg_of_pericenter": 44.1292,
        "meta_mean_anomaly": 316.2198,
        "meta_ephemeris_type": 0,
        "meta_classification_type": "U",
        "meta_norad_cat_id": 40894,
        "meta_element_set_no": 999,
        "meta_rev_at_epoch": 55210,
        "meta_bstar": 0.00025895872,
        "meta_mean_motion_dot": 2.038e-05,
        "meta_mean_motion_ddot": 0,
        "tle_line1": "1 40894U 15047A   25343.62620559  .00002038  00000+0  25896-3 0  9999",
        "tle_line2": "2 40894  97.6546  22.7161 0028619  44.1292 316.2198 14.82410793552103"
      },
      "geometry": {
        "type": "Point",
        "coordinates": [
          -103.6086836793808,
          80.4821769292327
        ]
      }
    },
    {
      "type": "Feature",
      "properties": {
        "norad_id": 41026,
        "name": "YAOGAN-28",
        "group": "resource",
        "lat": -11.562638329870081,
        "lon": -59.647027881772864,
        "alt_km": 492.786596280549,
        "timestamp": "2025-12-09T23:33:23.506495+00:00",
        "meta_object_name": "YAOGAN-28",
        "meta_object_id": "2015-064A",
        "meta_epoch": "2025-12-09T14:50:31.490592",
        "meta_mean_motion": 15.24267071,
        "meta_eccentricity": 0.00122402,
        "meta_inclination": 97.2807,
        "meta_ra_of_asc_node": 121.4991,
        "meta_arg_of_pericenter": 136.2685,
        "meta_mean_anomaly": 223.9525,
        "meta_ephemeris_type": 0,
        "meta_classification_type": "U",
        "meta_norad_cat_id": 41026,
        "meta_element_set_no": 999,
        "meta_rev_at_epoch": 56177,
        "meta_bstar": 0.00049561393,
        "meta_mean_motion_dot": 0.00012064,
        "meta_mean_motion_ddot": 0,
        "tle_line1": "1 41026U 15064A   25343.61842003  .00012064  00000+0  49561-3 0  9990",
        "tle_line2": "2 41026  97.2807 121.4991 0012240 136.2685 223.9525 15.24267071561774"
      },
      "geometry": {
        "type": "Point",
        "coordinates": [
          -59.647027881772864,
          -11.562638329870081
        ]
      }
    },
    {
      "type": "Feature",
      "properties": {
        "norad_id": 41038,
        "name": "YAOGAN-29",
        "group": "resource",
        "lat": -21.342942159320565,
        "lon": 10.302740244137045,
        "alt_km": 625.2920459068282,
        "timestamp": "2025-12-09T23:33:23.506505+00:00",
        "meta_object_name": "YAOGAN-29",
        "meta_object_id": "2015-069A",
        "meta_epoch": "2025-12-09T15:33:22.516128",
        "meta_mean_motion": 14.82878684,
        "meta_eccentricity": 4.239e-05,
        "meta_inclination": 98.0217,
        "meta_ra_of_asc_node": 6.8095,
        "meta_arg_of_pericenter": 353.9016,
        "meta_mean_anomaly": 6.2191,
        "meta_ephemeris_type": 0,
        "meta_classification_type": "U",
        "meta_norad_cat_id": 41038,
        "meta_element_set_no": 999,
        "meta_rev_at_epoch": 54253,
        "meta_bstar": 0.00012782288,
        "meta_mean_motion_dot": 9.81e-06,
        "meta_mean_motion_ddot": 0,
        "tle_line1": "1 41038U 15069A   25343.64817727  .00000981  00000+0  12782-3 0  9996",
        "tle_line2": "2 41038  98.0217   6.8095 0000423 353.9016   6.2191 14.82878684542533"
      },
      "geometry": {
        "type": "Point",
        "coordinates": [
          10.302740244137045,
          -21.342942159320565
        ]
      }
    },
    {
      "type": "Feature",
      "properties": {
        "norad_id": 41167,
        "name": "KENT RIDGE 1",
        "group": "resource",
        "lat": 7.677907679614814,
        "lon": 21.335306769179276,
        "alt_km": 494.0103468864636,
        "timestamp": "2025-12-09T23:33:23.506516+00:00",
        "meta_object_name": "KENT RIDGE 1",
        "meta_object_id": "2015-077B",
        "meta_epoch": "2025-12-09T08:44:52.188288",
        "meta_mean_motion": 15.21595309,
        "meta_eccentricity": 0.00085373,
        "meta_inclination": 14.9788,
        "meta_ra_of_asc_node": 236.1876,
        "meta_arg_of_pericenter": 82.9028,
        "meta_mean_anomaly": 277.2264,
        "meta_ephemeris_type": 0,
        "meta_classification_type": "U",
        "meta_norad_cat_id": 41167,
        "meta_element_set_no": 999,
        "meta_rev_at_epoch": 55212,
        "meta_bstar": 0.00025929619,
        "meta_mean_motion_dot": 6.793e-05,
        "meta_mean_motion_ddot": 0,
        "tle_line1": "1 41167U 15077B   25343.36449292  .00006793  00000+0  25930-3 0  9991",
        "tle_line2": "2 41167  14.9788 236.1876 0008537  82.9028 277.2264 15.21595309552128"
      },
      "geometry": {
        "type": "Point",
        "coordinates": [
          21.335306769179276,
          7.677907679614814
        ]
      }
    },
    {
      "type": "Feature",
      "properties": {
        "norad_id": 41194,
        "name": "GAOFEN-4",
        "group": "resource",
        "lat": 0.15545920221918427,
        "lon": 178.00603566518285,
        "alt_km": 35771.54600556068,
        "timestamp": "2025-12-09T23:33:23.506531+00:00",
        "meta_object_name": "GAOFEN-4",
        "meta_object_id": "2015-083A",
        "meta_epoch": "2025-12-09T14:04:34.788000",
        "meta_mean_motion": 1.00270678,
        "meta_eccentricity": 0.00035945,
        "meta_inclination": 0.1626,
        "meta_ra_of_asc_node": 80.7132,
        "meta_arg_of_pericenter": 106.9083,
        "meta_mean_anomaly": 207.8037,
        "meta_ephemeris_type": 0,
        "meta_classification_type": "U",
        "meta_norad_cat_id": 41194,
        "meta_element_set_no": 999,
        "meta_rev_at_epoch": 3662,
        "meta_bstar": 0,
        "meta_mean_motion_dot": -3.32e-06,
        "meta_mean_motion_ddot": 0,
        "tle_line1": "1 41194U 15083A   25343.58651375 -.00000332  00000+0  00000+0 0  9990",
        "tle_line2": "2 41194   0.1626  80.7132 0003594 106.9083 207.8037  1.00270678 36620"
      },
      "geometry": {
        "type": "Point",
        "coordinates": [
          178.00603566518285,
          0.15545920221918427
        ]
      }
    },
    {
      "type": "Feature",
      "properties": {
        "norad_id": 41240,
        "name": "JASON-3",
        "group": "resource",
        "lat": 46.744353217709076,
        "lon": -44.57978490345722,
        "alt_km": 1310.3102762223143,
        "timestamp": "2025-12-09T23:33:23.506543+00:00",
        "meta_object_name": "JASON-3",
        "meta_object_id": "2016-002A",
        "meta_epoch": "2025-12-09T15:26:31.132032",
        "meta_mean_motion": 12.87626369,
        "meta_eccentricity": 0.00071359,
        "meta_inclination": 66.0389,
        "meta_ra_of_asc_node": 164.334,
        "meta_arg_of_pericenter": 270.5763,
        "meta_mean_anomaly": 89.4438,
        "meta_ephemeris_type": 0,
        "meta_classification_type": "U",
        "meta_norad_cat_id": 41240,
        "meta_element_set_no": 999,
        "meta_rev_at_epoch": 46284,
        "meta_bstar": 5.5499874e-05,
        "meta_mean_motion_dot": -4.8e-07,
        "meta_mean_motion_ddot": 0,
        "tle_line1": "1 41240U 16002A   25343.64341588 -.00000048  00000+0  55500-4 0  9997",
        "tle_line2": "2 41240  66.0389 164.3340 0007135 270.5763  89.4438 12.87626369462842"
      },
      "geometry": {
        "type": "Point",
        "coordinates": [
          -44.57978490345722,
          46.744353217709076
        ]
      }
    },
    {
      "type": "Feature",
      "properties": {
        "norad_id": 41335,
        "name": "SENTINEL-3A",
        "group": "resource",
        "lat": -53.50766834679218,
        "lon": -142.804063380147,
        "alt_km": 810.1364813740265,
        "timestamp": "2025-12-09T23:33:23.506554+00:00",
        "meta_object_name": "SENTINEL-3A",
        "meta_object_id": "2016-011A",
        "meta_epoch": "2025-12-09T14:02:45.846240",
        "meta_mean_motion": 14.26744898,
        "meta_eccentricity": 9.553e-05,
        "meta_inclination": 98.6211,
        "meta_ra_of_asc_node": 48.6399,
        "meta_arg_of_pericenter": 93.4438,
        "meta_mean_anomaly": 266.6851,
        "meta_ephemeris_type": 0,
        "meta_classification_type": "U",
        "meta_norad_cat_id": 41335,
        "meta_element_set_no": 999,
        "meta_rev_at_epoch": 51102,
        "meta_bstar": 0.0001272842,
        "meta_mean_motion_dot": 2.64e-06,
        "meta_mean_motion_ddot": 0,
        "tle_line1": "1 41335U 16011A   25343.58525285  .00000264  00000+0  12728-3 0  9996",
        "tle_line2": "2 41335  98.6211  48.6399 0000955  93.4438 266.6851 14.26744898511020"
      },
      "geometry": {
        "type": "Point",
        "coordinates": [
          -142.804063380147,
          -53.50766834679218
        ]
      }
    }
  ]
}